[
  {
    "OBJECT_NAME": "LEMUR-2-PETERG",
    "OBJECT_ID": "2017-042S",
    "EPOCH": "2026-07-23T11:37:56.548992",
    "MEAN_MOTION": 15.35280866,
    "ECCENTRICITY": 0.0003967,
    "INCLINATION": 97.4004,
    "RA_OF_ASC_NODE": 29.6143,
    "ARG_OF_PERICENTER": 187.4253,
    "MEAN_ANOMALY": 172.6933,
    "EPHEMERIS_TYPE": 0,
    "CLASSIFICATION_TYPE": "U",
    "NORAD_CAT_ID": 42841,
    "ELEMENT_SET_NO": 999,
    "REV_AT_EPOCH": 49400,
    "BSTAR": 0.0006377,
    "MEAN_MOTION_DOT": 0.00021806,
    "MEAN_MOTION_DDOT": 0
  }
]
