LEMUR-2-PETERG          
1 42841U 17042S   26204.48468229  .00021806  00000+0  63770-3 0  9992
2 42841  97.4004  29.6143 0003966 187.4253 172.6933 15.35280867494007
